{
  "type": "FeatureCollection",
  "features": [
    {
      "type": "Feature",
      "properties": {
        "norad_id": 41773,
        "name": "SKYSAT-C2",
        "group": "resource",
        "lat": -38.94308297615318,
        "lon": -167.55997890726314,
        "alt_km": 462.4759779735141,
        "timestamp": "2025-12-19T22:41:52.036535+00:00",
        "meta_object_name": "SKYSAT-C2",
        "meta_object_id": "2016-058D",
        "meta_epoch": "2025-12-18T23:52:40.992960",
        "meta_mean_motion": 15.37407901,
        "meta_eccentricity": 0.00035522,
        "meta_inclination": 97.0351,
        "meta_ra_of_asc_node": 17.257,
        "meta_arg_of_pericenter": 17.3368,
        "meta_mean_anomaly": 342.7999,
        "meta_ephemeris_type": 0,
        "meta_classification_type": "U",
        "meta_norad_cat_id": 41773,
        "meta_element_set_no": 999,
        "meta_rev_at_epoch": 51732,
        "meta_bstar": 0.0002611674,
        "meta_mean_motion_dot": 9.504e-05,
        "meta_mean_motion_ddot": 0,
        "tle_line1": "1 41773U 16058D   25352.99491890  .00009504  00000+0  26117-3 0  9995",
        "tle_line2": "2 41773  97.0351  17.2570 0003552  17.3368 342.7999 15.37407901517322"
      },
      "geometry": {
        "type": "Point",
        "coordinates": [
          -167.55997890726314,
          -38.94308297615318
        ]
      }
    },
    {
      "type": "Feature",
      "properties": {
        "norad_id": 41774,
        "name": "SKYSAT-C3",
        "group": "resource",
        "lat": -53.07044403727702,
        "lon": -161.95416194068022,
        "alt_km": 440.2947229899919,
        "timestamp": "2025-12-19T22:41:52.036546+00:00",
        "meta_object_name": "SKYSAT-C3",
        "meta_object_id": "2016-058E",
        "meta_epoch": "2025-12-19T01:28:38.745984",
        "meta_mean_motion": 15.44615791,
        "meta_eccentricity": 0.00018725,
        "meta_inclination": 96.9289,
        "meta_ra_of_asc_node": 26.5138,
        "meta_arg_of_pericenter": 107.4205,
        "meta_mean_anomaly": 252.725,
        "meta_ephemeris_type": 0,
        "meta_classification_type": "U",
        "meta_norad_cat_id": 41774,
        "meta_element_set_no": 999,
        "meta_rev_at_epoch": 51823,
        "meta_bstar": 0.00033013683,
        "meta_mean_motion_dot": 0.00015292,
        "meta_mean_motion_ddot": 0,
        "tle_line1": "1 41774U 16058E   25353.06155956  .00015292  00000+0  33014-3 0  9990",
        "tle_line2": "2 41774  96.9289  26.5138 0001872 107.4205 252.7250 15.44615791518235"
      },
      "geometry": {
        "type": "Point",
        "coordinates": [
          -161.95416194068022,
          -53.07044403727702
        ]
      }
    },
    {
      "type": "Feature",
      "properties": {
        "norad_id": 41785,
        "name": "ALSAT 1B",
        "group": "resource",
        "lat": 15.518474203116044,
        "lon": 3.2490637399003863,
        "alt_km": 652.2629517123796,
        "timestamp": "2025-12-19T22:41:52.036556+00:00",
        "meta_object_name": "ALSAT 1B",
        "meta_object_id": "2016-059C",
        "meta_epoch": "2025-12-19T19:21:51.138432",
        "meta_mean_motion": 14.72082441,
        "meta_eccentricity": 0.0010821,
        "meta_inclination": 97.7807,
        "meta_ra_of_asc_node": 5.292,
        "meta_arg_of_pericenter": 83.451,
        "meta_mean_anomaly": 276.793,
        "meta_ephemeris_type": 0,
        "meta_classification_type": "U",
        "meta_norad_cat_id": 41785,
        "meta_element_set_no": 999,
        "meta_rev_at_epoch": 49418,
        "meta_bstar": 7.2883e-05,
        "meta_mean_motion_dot": 4.11e-06,
        "meta_mean_motion_ddot": 0,
        "tle_line1": "1 41785U 16059C   25353.80684188  .00000411  00000+0  72883-4 0  9994",
        "tle_line2": "2 41785  97.7807   5.2920 0010821  83.4510 276.7930 14.72082441494189"
      },
      "geometry": {
        "type": "Point",
        "coordinates": [
          3.2490637399003863,
          15.518474203116044
        ]
      }
    },
    {
      "type": "Feature",
      "properties": {
        "norad_id": 41787,
        "name": "PATHFINDER 1",
        "group": "resource",
        "lat": -28.746860358228954,
        "lon": 0.7048318171505279,
        "alt_km": 674.733942896014,
        "timestamp": "2025-12-19T22:41:52.036566+00:00",
        "meta_object_name": "PATHFINDER 1",
        "meta_object_id": "2016-059E",
        "meta_epoch": "2025-12-19T11:22:24.247200",
        "meta_mean_motion": 14.67332294,
        "meta_eccentricity": 0.0029872,
        "meta_inclination": 97.8136,
        "meta_ra_of_asc_node": 355.935,
        "meta_arg_of_pericenter": 60.7129,
        "meta_mean_anomaly": 299.7056,
        "meta_ephemeris_type": 0,
        "meta_classification_type": "U",
        "meta_norad_cat_id": 41787,
        "meta_element_set_no": 999,
        "meta_rev_at_epoch": 49335,
        "meta_bstar": 0.00010834,
        "meta_mean_motion_dot": 5.69e-06,
        "meta_mean_motion_ddot": 0,
        "tle_line1": "1 41787U 16059E   25353.47389175  .00000569  00000+0  10834-3 0  9998",
        "tle_line2": "2 41787  97.8136 355.9350 0029872  60.7129 299.7056 14.67332294493359"
      },
      "geometry": {
        "type": "Point",
        "coordinates": [
          0.7048318171505279,
          -28.746860358228954
        ]
      }
    },
    {
      "type": "Feature",
      "properties": {
        "norad_id": 41790,
        "name": "SCATSAT 1",
        "group": "resource",
        "lat": -80.69190230760817,
        "lon": 169.79480020872919,
        "alt_km": 677.1772933854791,
        "timestamp": "2025-12-19T22:41:52.036576+00:00",
        "meta_object_name": "SCATSAT 1",
        "meta_object_id": "2016-059H",
        "meta_epoch": "2025-12-19T15:00:35.016192",
        "meta_mean_motion": 14.7895767,
        "meta_eccentricity": 0.0056438,
        "meta_inclination": 98.1455,
        "meta_ra_of_asc_node": 50.3814,
        "meta_arg_of_pericenter": 106.2754,
        "meta_mean_anomaly": 254.4674,
        "meta_ephemeris_type": 0,
        "meta_classification_type": "U",
        "meta_norad_cat_id": 41790,
        "meta_element_set_no": 999,
        "meta_rev_at_epoch": 7504,
        "meta_bstar": 0.00014584,
        "meta_mean_motion_dot": 1.049e-05,
        "meta_mean_motion_ddot": 0,
        "tle_line1": "1 41790U 16059H   25353.62540528  .00001049  00000+0  14584-3 0  9990",
        "tle_line2": "2 41790  98.1455  50.3814 0056438 106.2754 254.4674 14.78957670 75049"
      },
      "geometry": {
        "type": "Point",
        "coordinates": [
          169.79480020872919,
          -80.69190230760817
        ]
      }
    },
    {
      "type": "Feature",
      "properties": {
        "norad_id": 41875,
        "name": "GOKTURK 1A",
        "group": "resource",
        "lat": -67.5135609856175,
        "lon": -93.5469212547419,
        "alt_km": 692.2039981662128,
        "timestamp": "2025-12-19T22:41:52.036586+00:00",
        "meta_object_name": "GOKTURK 1A",
        "meta_object_id": "2016-073A",
        "meta_epoch": "2025-12-19T18:05:15.466272",
        "meta_mean_motion": 14.62787444,
        "meta_eccentricity": 0.0001255,
        "meta_inclination": 98.1436,
        "meta_ra_of_asc_node": 246.0251,
        "meta_arg_of_pericenter": 81.7262,
        "meta_mean_anomaly": 278.4082,
        "meta_ephemeris_type": 0,
        "meta_classification_type": "U",
        "meta_norad_cat_id": 41875,
        "meta_element_set_no": 999,
        "meta_rev_at_epoch": 48259,
        "meta_bstar": 8.9933e-05,
        "meta_mean_motion_dot": 4.12e-06,
        "meta_mean_motion_ddot": 0,
        "tle_line1": "1 41875U 16073A   25353.75365123  .00000412  00000+0  89933-4 0  9994",
        "tle_line2": "2 41875  98.1436 246.0251 0001255  81.7262 278.4082 14.62787444482593"
      },
      "geometry": {
        "type": "Point",
        "coordinates": [
          -93.5469212547419,
          -67.5135609856175
        ]
      }
    },
    {
      "type": "Feature",
      "properties": {
        "norad_id": 41877,
        "name": "RESOURCESAT-2A",
        "group": "resource",
        "lat": -6.57245165362308,
        "lon": 64.77986270639437,
        "alt_km": 824.3159836667173,
        "timestamp": "2025-12-19T22:41:52.036597+00:00",
        "meta_object_name": "RESOURCESAT-2A",
        "meta_object_id": "2016-074A",
        "meta_epoch": "2025-12-19T17:39:41.180256",
        "meta_mean_motion": 14.21603248,
        "meta_eccentricity": 0.0001366,
        "meta_inclination": 98.7755,
        "meta_ra_of_asc_node": 63.5515,
        "meta_arg_of_pericenter": 222.7175,
        "meta_mean_anomaly": 137.3896,
        "meta_ephemeris_type": 0,
        "meta_classification_type": "U",
        "meta_norad_cat_id": 41877,
        "meta_element_set_no": 999,
        "meta_rev_at_epoch": 46880,
        "meta_bstar": 0.00014368,
        "meta_mean_motion_dot": 2.71e-06,
        "meta_mean_motion_ddot": 0,
        "tle_line1": "1 41877U 16074A   25353.73589329  .00000271  00000+0  14368-3 0  9993",
        "tle_line2": "2 41877  98.7755  63.5515 0001366 222.7175 137.3896 14.21603248468801"
      },
      "geometry": {
        "type": "Point",
        "coordinates": [
          64.77986270639437,
          -6.57245165362308
        ]
      }
    }
  ]
}